[{"OBJECT_NAME":"STARLINK-4430","OBJECT_ID":"2022-099W","EPOCH":"2026-03-09T21:30:27.711648","MEAN_MOTION":15.01258738,"ECCENTRICITY":0.00032901,"INCLINATION":97.604,"RA_OF_ASC_NODE":190.4101,"ARG_OF_PERICENTER":183.5197,"MEAN_ANOMALY":176.6004,"EPHEMERIS_TYPE":0,"CLASSIFICATION_TYPE":"U","NORAD_CAT_ID":53485,"ELEMENT_SET_NO":999,"REV_AT_EPOCH":19601,"BSTAR":5.9264035e-5,"MEAN_MOTION_DOT":7.03e-6,"MEAN_MOTION_DDOT":0},{"OBJECT_NAME":"HAWK-8C","OBJECT_ID":"2024-066H","EPOCH":"2026-03-09T11:22:19.381152","MEAN_MOTION":14.98770227,"ECCENTRICITY":0.00039352,"INCLINATION":45.6068,"RA_OF_ASC_NODE":72.8656,"ARG_OF_PERICENTER":260.2975,"MEAN_ANOMALY":99.7462,"EPHEMERIS_TYPE":0,"CLASSIFICATION_TYPE":"U","NORAD_CAT_ID":59449,"ELEMENT_SET_NO":999,"REV_AT_EPOCH":10486,"BSTAR":0.00021518384,"MEAN_MOTION_DOT":2.4e-5,"MEAN_MOTION_DDOT":0}]
